line1,line2,validFromUtcTime
1 00000U 00000E   26001.00000000  .00000000  00000-0  27772-4 0    01,2 00000  88.8960 135.3350 0009828 270.5811 171.8165 13.55236644    00,2026-01-01T00:00:00Z
1 00000U 00000E   26002.00000000  .00000000  00000-0  27772-4 0    02,2 00000  88.8960 135.2227 0009828 267.6714  10.6669 13.55236683    03,2026-01-02T00:00:00Z
